format  = 'OEF2.0'       ! file format
rectype = '1L'           ! record type (1L/ML)
elem    = 'KEP'          ! type of orbital elements
refsys  = ECLM J2000     ! default reference system
END_OF_HEADER
! Name, Epoch(MJD), a, e, i, long. node, arg. peric., mean anomaly
'1'            58800.000000   2.7697240578207225E+00   7.6648540063798329E-02   1.0592270756421128E+01   8.0303803845075947E+01   7.3837766490766057E+01   1.1982381274917590E+02  3.47  0.12  0
'2'            58800.000000   2.7730436261628393E+00   2.3022536697903742E-01   3.4831442918264898E+01   1.7306521052490632E+02   3.1011512549584000E+02   1.0234882783539631E+02  4.15  0.11  0
'3'            58800.000000   2.6686763150483057E+00   2.5692402141459364E-01   1.2990079876276074E+01   1.6985018894970833E+02   2.4810326188161767E+02   8.0169930543181223E+01  5.39  0.32  0
'4'            58800.000000   2.3618081189762754E+00   8.8611808594068878E-02   7.1418070149322928E+00   1.0380940746656152E+02   1.5081930998492686E+02   1.5008776618146592E+02  3.44  0.32  0
'5'            58800.000000   2.5743965162132469E+00   1.9103468974464355E-01   5.3671110311032590E+00   1.4157164428720705E+02   3.5866031613230234E+02   3.3011212429084964E+02  6.96  0.15  0
'6'            58800.000000   2.4247745703529762E+00   2.0311557396138516E-01   1.4739162139625581E+01   1.3864113682494775E+02   2.3976673436764094E+02   1.3843723487417276E+02  5.72  0.24  0
'7'            58800.000000   2.3860430955290850E+00   2.3082998652245376E-01   5.5235842948774048E+00   2.5956321926490165E+02   1.4525942931400897E+02   1.9393164842754655E+02  5.58  0.15  0
'8'            58800.000000   2.2022695095355149E+00   1.5603577114114850E-01   5.8884626920332872E+00   1.1087667208189605E+02   2.8532865283990077E+02   2.5513639903199362E+02  6.64  0.28  0
'9'            58800.000000   2.3859746578076573E+00   1.2321849819469564E-01   5.5767437274235974E+00   6.8909612843413925E+01   6.3726481289987031E+00   3.3040218434324470E+02  6.31  0.17  0
'10'           58800.000000   3.1421330438416488E+00   1.1226835811921602E-01   3.8317129334538569E+00   2.8319866012027620E+02   3.1237916002903370E+02   1.8750979381693233E+02  5.51  0.15  0
'11'           58800.000000   2.4534316118664656E+00   1.0022293179327439E-01   4.6311191698010585E+00   1.2552851621298800E+02   1.9537883414578755E+02   3.3037881525153591E+02  6.53  0.15  0
'12'           58800.000000   2.3341175529603198E+00   2.2029995123620644E-01   8.3727240717981353E+00   2.3540632032740189E+02   6.9661272079875417E+01   1.8858206525738805E+02  7.37  0.22  0
'13'           58800.000000   2.5757989752635058E+00   8.5252895760458025E-02   1.6536171611952931E+01   4.3219981610272683E+01   8.0496233437224873E+01   2.3523498584600705E+02  6.79  0.15  0
'14'           58800.000000   2.5859994328575922E+00   1.6639367589250337E-01   9.1216256196980403E+00   8.6123009327984477E+01   9.7837774520236579E+01   2.1236881146879836E+02  6.47  0.15  0
'15'           58800.000000   2.6434237974992798E+00   1.8607938733266111E-01   1.1753526798567769E+01   2.9293558236514514E+02   9.8582318424900706E+01   3.2917047986016416E+02  5.42  0.23  0
'16'           58800.000000   2.9227087103741094E+00   1.3348186463960227E-01   3.0965679457471449E+00   1.5004131883148281E+02   2.2898631686879975E+02   3.2762781718373924E+02  6.08  0.20  0
'17'           58800.000000   2.4712188531659143E+00   1.3328909385552309E-01   5.5914091797261412E+00   1.2554500020248734E+02   1.3613222386640862E+02   3.5420268743045096E+02  7.76  0.15  0
'18'           58800.000000   2.2957596997278991E+00   2.1749884809398110E-01   1.0131424511764834E+01   1.5036603886507817E+02   2.2805491805737321E+02   3.2380650662879361E+02  6.56  0.25  0
'19'           58800.000000   2.4438046420818087E+00   1.5737036661655496E-01   1.5729804477094185E+00   2.1112022660108406E+02   1.8207428075114112E+02   2.4892152253977656E+02  7.30  0.10  0
'20'           58800.000000   2.4106013051850046E+00   1.4202754784781435E-01   7.0856722047220444E-01   2.0608443346807704E+02   2.5704962047941638E+02   1.7005952761248352E+02  6.61  0.25  0
